SEEDS II (CO-66)        
1 32791U 08021J   26068.92109284  .00023758  00000+0  84213-3 0  9995
2 32791  97.7519  62.3611 0001448 359.2618   0.8619 15.29097235972108
STARLINK-31823          
1 59794U 24093N   26067.69377638  .00000298  00000+0  20373-4 0  9999
2 59794  42.9987 214.4702 0002017 273.8979  86.1642 15.27589278102543
